{"type": "FeatureCollection", "features": [ {"type": "Feature", "properties": {"norad_id": 54234, "name": "NOAA 21 (JPSS-2)", "group": "weather", "lat": -64.47731521588038, "lon": -68.45639956386385, "alt_km": 835.1643343412379, "timestamp": "2025-12-02T07:10:08.752015+00:00", "meta": {"OBJECT_NAME": "NOAA 21 (JPSS-2)", "OBJECT_ID": "2022-150A", "EPOCH": "2025-12-01T19:38:15.196416", "MEAN_MOTION": 14.19519096, "ECCENTRICITY": 0.0002568, "INCLINATION": 98.7445, "RA_OF_ASC_NODE": 272.2636, "ARG_OF_PERICENTER": 58.3449, "MEAN_ANOMALY": 301.7977, "EPHEMERIS_TYPE": 0, "CLASSIFICATION_TYPE": "U", "NORAD_CAT_ID": 54234, "ELEMENT_SET_NO": 999, "REV_AT_EPOCH": 15854, "BSTAR": 6.758e-05, "MEAN_MOTION_DOT": 9.9e-07, "MEAN_MOTION_DDOT": 0}, "tle": {"line1": "1 54234U 22150A   25335.81823144  .00000099  00000+0  67580-4 0  9994", "line2": "2 54234  98.7445 272.2636 0002568  58.3449 301.7977 14.19519096158541"}}, "geometry": {"type": "Point", "coordinates": [-68.45639956386385, -64.47731521588038]}}, {"type": "Feature", "properties": {"norad_id": 54743, "name": "METEOSAT-12 (MTG-I1)", "group": "weather", "lat": 0.3521880914797504, "lon": 178.60313926729162, "alt_km": 35782.83558316077, "timestamp": "2025-12-02T07:10:08.752028+00:00", "meta": {"OBJECT_NAME": "METEOSAT-12 (MTG-I1)", "OBJECT_ID": "2022-170C", "EPOCH": "2025-12-01T18:56:59.763840", "MEAN_MOTION": 1.00273472, "ECCENTRICITY": 0.0001435, "INCLINATION": 0.715, "RA_OF_ASC_NODE": 29.717, "ARG_OF_PERICENTER": 212.407, "MEAN_ANOMALY": 112.727, "EPHEMERIS_TYPE": 0, "CLASSIFICATION_TYPE": "U", "NORAD_CAT_ID": 54743, "ELEMENT_SET_NO": 999, "REV_AT_EPOCH": 1099, "BSTAR": 0, "MEAN_MOTION_DOT": 1.4e-07, "MEAN_MOTION_DDOT": 0}, "tle": {"line1": "1 54743U 22170C   25335.78958060  .00000014  00000+0  00000+0 0  9999", "line2": "2 54743   0.7150  29.7170 0001435 212.4070 112.7270  1.00273472 10998"}}, "geometry": {"type": "Point", "coordinates": [178.60313926729162, 0.3521880914797504]}}, {"type": "Feature", "properties": {"norad_id": 55973, "name": "TIANMU-1 03", "group": "weather", "lat": -7.1242370605952186, "lon": 139.60669353512122, "alt_km": 449.21039139394816, "timestamp": "2025-12-02T07:10:08.752039+00:00", "meta": {"OBJECT_NAME": "TIANMU-1 03", "OBJECT_ID": "2023-039A", "EPOCH": "2025-12-01T20:17:13.795584", "MEAN_MOTION": 15.40432948, "ECCENTRICITY": 0.0004525, "INCLINATION": 97.5103, "RA_OF_ASC_NODE": 138.1963, "ARG_OF_PERICENTER": 92.5938, "MEAN_ANOMALY": 267.5826, "EPHEMERIS_TYPE": 0, "CLASSIFICATION_TYPE": "U", "NORAD_CAT_ID": 55973, "ELEMENT_SET_NO": 999, "REV_AT_EPOCH": 15038, "BSTAR": 0.00040267, "MEAN_MOTION_DOT": 0.00016229, "MEAN_MOTION_DDOT": 0}, "tle": {"line1": "1 55973U 23039A   25335.84529856  .00016229  00000+0  40267-3 0  9992", "line2": "2 55973  97.5103 138.1963 0004525  92.5938 267.5826 15.40432948150382"}}, "geometry": {"type": "Point", "coordinates": [139.60669353512122, -7.1242370605952186]}}, {"type": "Feature", "properties": {"norad_id": 55974, "name": "TIANMU-1 04", "group": "weather", "lat": 81.26207372372065, "lon": 16.901359691251308, "alt_km": 432.83683528509846, "timestamp": "2025-12-02T07:10:08.752052+00:00", "meta": {"OBJECT_NAME": "TIANMU-1 04", "OBJECT_ID": "2023-039B", "EPOCH": "2025-12-01T21:24:31.847328", "MEAN_MOTION": 15.40762546, "ECCENTRICITY": 0.0005251, "INCLINATION": 97.5034, "RA_OF_ASC_NODE": 137.44, "ARG_OF_PERICENTER": 88.3734, "MEAN_ANOMALY": 271.8113, "EPHEMERIS_TYPE": 0, "CLASSIFICATION_TYPE": "U", "NORAD_CAT_ID": 55974, "ELEMENT_SET_NO": 999, "REV_AT_EPOCH": 15039, "BSTAR": 0.00041321, "MEAN_MOTION_DOT": 0.00016841, "MEAN_MOTION_DDOT": 0}, "tle": {"line1": "1 55974U 23039B   25335.89203527  .00016841  00000+0  41321-3 0  9994", "line2": "2 55974  97.5034 137.4400 0005251  88.3734 271.8113 15.40762546150396"}}, "geometry": {"type": "Point", "coordinates": [16.901359691251308, 81.26207372372065]}}, {"type": "Feature", "properties": {"norad_id": 55975, "name": "TIANMU-1 05", "group": "weather", "lat": 39.053723506282566, "lon": -35.50803466692559, "alt_km": 439.575638702383, "timestamp": "2025-12-02T07:10:08.752062+00:00", "meta": {"OBJECT_NAME": "TIANMU-1 05", "OBJECT_ID": "2023-039C", "EPOCH": "2025-12-01T19:38:54.038400", "MEAN_MOTION": 15.40390081, "ECCENTRICITY": 0.0004294, "INCLINATION": 97.5081, "RA_OF_ASC_NODE": 137.8564, "ARG_OF_PERICENTER": 109.1104, "MEAN_ANOMALY": 251.0607, "EPHEMERIS_TYPE": 0, "CLASSIFICATION_TYPE": "U", "NORAD_CAT_ID": 55975, "ELEMENT_SET_NO": 999, "REV_AT_EPOCH": 15036, "BSTAR": 0.00040873, "MEAN_MOTION_DOT": 0.00016451, "MEAN_MOTION_DDOT": 0}, "tle": {"line1": "1 55975U 23039C   25335.81868100  .00016451  00000+0  40873-3 0  9999", "line2": "2 55975  97.5081 137.8564 0004294 109.1104 251.0607 15.40390081150369"}}, "geometry": {"type": "Point", "coordinates": [-35.50803466692559, 39.053723506282566]}}, {"type": "Feature", "properties": {"norad_id": 55976, "name": "TIANMU-1 06", "group": "weather", "lat": 77.82384257514747, "lon": 101.11951086072317, "alt_km": 433.4502005545637, "timestamp": "2025-12-02T07:10:08.752072+00:00", "meta": {"OBJECT_NAME": "TIANMU-1 06", "OBJECT_ID": "2023-039D", "EPOCH": "2025-12-01T21:28:11.669664", "MEAN_MOTION": 15.40815585, "ECCENTRICITY": 0.0004658, "INCLINATION": 97.5092, "RA_OF_ASC_NODE": 138.3906, "ARG_OF_PERICENTER": 104.5275, "MEAN_ANOMALY": 255.6488, "EPHEMERIS_TYPE": 0, "CLASSIFICATION_TYPE": "U", "NORAD_CAT_ID": 55976, "ELEMENT_SET_NO": 999, "REV_AT_EPOCH": 15039, "BSTAR": 0.0004082, "MEAN_MOTION_DOT": 0.00016663, "MEAN_MOTION_DDOT": 0}, "tle": {"line1": "1 55976U 23039D   25335.89457951  .00016663  00000+0  40820-3 0  9993", "line2": "2 55976  97.5092 138.3906 0004658 104.5275 255.6488 15.40815585150391"}}, "geometry": {"type": "Point", "coordinates": [101.11951086072317, 77.82384257514747]}}, {"type": "Feature", "properties": {"norad_id": 56232, "name": "FENGYUN 3G", "group": "weather", "lat": -13.381579316579202, "lon": -90.22997260832953, "alt_km": 413.699897143827, "timestamp": "2025-12-02T07:10:08.752082+00:00", "meta": {"OBJECT_NAME": "FENGYUN 3G", "OBJECT_ID": "2023-055A", "EPOCH": "2025-12-01T21:58:38.474976", "MEAN_MOTION": 15.52657572, "ECCENTRICITY": 0.0009216, "INCLINATION": 49.9948, "RA_OF_ASC_NODE": 283.2696, "ARG_OF_PERICENTER": 96.3717, "MEAN_ANOMALY": 263.83, "EPHEMERIS_TYPE": 0, "CLASSIFICATION_TYPE": "U", "NORAD_CAT_ID": 56232, "ELEMENT_SET_NO": 999, "REV_AT_EPOCH": 14934, "BSTAR": 0.00052666, "MEAN_MOTION_DOT": 0.00032819, "MEAN_MOTION_DDOT": 0}, "tle": {"line1": "1 56232U 23055A   25335.91572309  .00032819  00000+0  52666-3 0  9997", "line2": "2 56232  49.9948 283.2696 0009216  96.3717 263.8300 15.52657572149348"}}, "geometry": {"type": "Point", "coordinates": [-90.22997260832953, -13.381579316579202]}}, {"type": "Feature", "properties": {"norad_id": 57166, "name": "METEOR-M2 3", "group": "weather", "lat": 31.27430433376927, "lon": 24.721175016493078, "alt_km": 806.7810458857393, "timestamp": "2025-12-02T07:10:08.752092+00:00", "meta": {"OBJECT_NAME": "METEOR-M2 3", "OBJECT_ID": "2023-091A", "EPOCH": "2025-12-01T20:54:10.924992", "MEAN_MOTION": 14.24023857, "ECCENTRICITY": 0.0004479, "INCLINATION": 98.6393, "RA_OF_ASC_NODE": 29.5994, "ARG_OF_PERICENTER": 37.7848, "MEAN_ANOMALY": 322.3645, "EPHEMERIS_TYPE": 0, "CLASSIFICATION_TYPE": "U", "NORAD_CAT_ID": 57166, "ELEMENT_SET_NO": 999, "REV_AT_EPOCH": 12643, "BSTAR": 3.0069e-05, "MEAN_MOTION_DOT": 2.6e-07, "MEAN_MOTION_DDOT": 0}, "tle": {"line1": "1 57166U 23091A   25335.87095978  .00000026  00000+0  30069-4 0  9990", "line2": "2 57166  98.6393  29.5994 0004479  37.7848 322.3645 14.24023857126431"}}, "geometry": {"type": "Point", "coordinates": [24.721175016493078, 31.27430433376927]}}, {"type": "Feature", "properties": {"norad_id": 57399, "name": "TIANMU-1 07", "group": "weather", "lat": -78.39760891126555, "lon": 64.95336008187103, "alt_km": 493.4320918639123, "timestamp": "2025-12-02T07:10:08.752102+00:00", "meta": {"OBJECT_NAME": "TIANMU-1 07", "OBJECT_ID": "2023-101A", "EPOCH": "2025-12-01T20:31:12.719712", "MEAN_MOTION": 15.27822096, "ECCENTRICITY": 0.0005553, "INCLINATION": 97.29, "RA_OF_ASC_NODE": 25.9465, "ARG_OF_PERICENTER": 109.2705, "MEAN_ANOMALY": 250.9136, "EPHEMERIS_TYPE": 0, "CLASSIFICATION_TYPE": "U", "NORAD_CAT_ID": 57399, "ELEMENT_SET_NO": 999, "REV_AT_EPOCH": 13149, "BSTAR": 0.00029009, "MEAN_MOTION_DOT": 7.813e-05, "MEAN_MOTION_DDOT": 0}, "tle": {"line1": "1 57399U 23101A   25335.85500833  .00007813  00000+0  29009-3 0  9991", "line2": "2 57399  97.2900  25.9465 0005553 109.2705 250.9136 15.27822096131491"}}, "geometry": {"type": "Point", "coordinates": [64.95336008187103, -78.39760891126555]}}, {"type": "Feature", "properties": {"norad_id": 57400, "name": "TIANMU-1 08", "group": "weather", "lat": 76.50343998101829, "lon": -121.59276764173026, "alt_km": 470.1492456166452, "timestamp": "2025-12-02T07:10:08.752112+00:00", "meta": {"OBJECT_NAME": "TIANMU-1 08", "OBJECT_ID": "2023-101B", "EPOCH": "2025-12-01T21:17:45.525408", "MEAN_MOTION": 15.27808273, "ECCENTRICITY": 0.0007427, "INCLINATION": 97.2888, "RA_OF_ASC_NODE": 25.778, "ARG_OF_PERICENTER": 114.3124, "MEAN_ANOMALY": 245.8891, "EPHEMERIS_TYPE": 0, "CLASSIFICATION_TYPE": "U", "NORAD_CAT_ID": 57400, "ELEMENT_SET_NO": 999, "REV_AT_EPOCH": 13149, "BSTAR": 0.00031213, "MEAN_MOTION_DOT": 8.412e-05, "MEAN_MOTION_DDOT": 0}, "tle": {"line1": "1 57400U 23101B   25335.88733247  .00008412  00000+0  31213-3 0  9990", "line2": "2 57400  97.2888  25.7780 0007427 114.3124 245.8891 15.27808273131493"}}, "geometry": {"type": "Point", "coordinates": [-121.59276764173026, 76.50343998101829]}}]}